{"type": "FeatureCollection", "features": [{"type": "Feature", "id": 4054723278, "geometry": {"type": "Polygon", "coordinates": [[[-78.130788, 0.386041], [-78.12633, 0.389043], [-78.120235, 0.38595], [-78.111229, 0.369666], [-78.108499, 0.367482], [-78.106862, 0.363298], [-78.104042, 0.354382], [-78.100948, 0.351744], [-78.094034, 0.352745], [-78.088121, 0.346831], [-78.094762, 0.323178], [-78.102495, 0.315355], [-78.113787, 0.308572], [-78.11831, 0.308186], [-78.122226, 0.308627], [-78.12719, 0.30962], [-78.131272, 0.310613], [-78.13425, 0.311551], [-78.138056, 0.313591], [-78.139656, 0.317507], [-78.140097, 0.322747], [-78.139931, 0.32716], [-78.139325, 0.328428], [-78.14484, 0.331738], [-78.145888, 0.332013], [-78.14665, 0.332012], [-78.151663, 0.330545], [-78.153211, 0.331197], [-78.155616, 0.332705], [-78.156838, 0.33356], [-78.157798, 0.335178], [-78.157697, 0.336585], [-78.157044, 0.338495], [-78.155536, 0.340255], [-78.152168, 0.343522], [-78.149001, 0.346739], [-78.147342, 0.34875], [-78.146135, 0.349404], [-78.14523, 0.356592], [-78.143237, 0.365401], [-78.133331, 0.377425], [-78.130788, 0.386041]]]}, "properties": {"title": "Ciudad Ibarra"}}, {"type": "Feature", "id": 1798559736, "geometry": {"type": "Polygon", "coordinates": [[[-78.123713, 0.321934], [-78.123717, 0.321777], [-78.123701, 0.321741], [-78.123122, 0.321731], [-78.123116, 0.321926], [-78.123713, 0.321934]]]}, "properties": {"title": "Santuario Católico Nuestro Señor del Amor - Caranqui"}}, {"type": "Feature", "id": 1505679682, "geometry": {"type": "Polygon", "coordinates": [[[-78.121383, 0.33039], [-78.12128, 0.330093], [-78.12114, 0.330065], [-78.121211, 0.330308], [-78.121115, 0.330332], [-78.121102, 0.330308], [-78.120991, 0.330349], [-78.121041, 0.330491], [-78.121383, 0.33039]]]}, "properties": {"title": "Iglesia Católica Nuestra Señora de Guadalupe"}}, {"type": "Feature", "id": 378671275, "geometry": {"type": "Polygon", "coordinates": [[[-78.121314, 0.343719], [-78.12136, 0.343403], [-78.120859, 0.343321], [-78.120806, 0.343641], [-78.121314, 0.343719]]]}, "properties": {"title": "Iglesia Católica Nuestra Señora de El Quinche"}}, {"type": "Feature", "id": 3444944838, "geometry": {"type": "Polygon", "coordinates": [[[-78.118165, 0.345651], [-78.118127, 0.345596], [-78.118019, 0.345581], [-78.118023, 0.345601], [-78.11786, 0.345582], [-78.117864, 0.34556], [-78.117816, 0.345553], [-78.117817, 0.345578], [-78.117795, 0.345572], [-78.117806, 0.345491], [-78.117723, 0.345479], [-78.117703, 0.345612], [-78.117673, 0.345606], [-78.117633, 0.34564], [-78.117627, 0.345684], [-78.117666, 0.345715], [-78.117688, 0.345718], [-78.11767, 0.345806], [-78.117746, 0.345819], [-78.117745, 0.345802], [-78.117777, 0.345801], [-78.117776, 0.345818], [-78.117808, 0.345821], [-78.117812, 0.34581], [-78.118007, 0.345838], [-78.118009, 0.345848], [-78.118093, 0.34586], [-78.118142, 0.345827], [-78.118104, 0.345778], [-78.118116, 0.345686], [-78.118165, 0.345651]]]}, "properties": {"title": "Basílica La Dolorosa"}}, {"type": "Feature", "id": 1300621955, "geometry": {"type": "Polygon", "coordinates": [[[-78.117186, 0.352198], [-78.117388, 0.352231], [-78.117485, 0.351659], [-78.117283, 0.351625], [-78.117186, 0.352198]]]}, "properties": {"title": "Basílica La Dolorosa"}}, {"type": "Feature", "id": 286435676, "geometry": {"type": "Polygon", "coordinates": [[[-78.116281, 0.351364], [-78.11635, 0.350962], [-78.116097, 0.350926], [-78.116087, 0.351011], [-78.115976, 0.350991], [-78.11599, 0.350906], [-78.115895, 0.350893], [-78.115875, 0.351033], [-78.115764, 0.351021], [-78.115731, 0.351278], [-78.116281, 0.351364]]]}, "properties": {"title": "Iglesia San Agustín"}}, {"type": "Feature", "id": 1172275508, "geometry": {"type": "Polygon", "coordinates": [[[-78.12058, 0.351819], [-78.120671, 0.351288], [-78.12019, 0.351196], [-78.12009, 0.351731], [-78.12058, 0.351819]]]}, "properties": {"title": "Iglesia La Merced"}}, {"type": "Feature", "id": 3196904509, "geometry": {"type": "Polygon", "coordinates": [[[-78.117671, 0.356409], [-78.11775, 0.355992], [-78.117404, 0.355919], [-78.117307, 0.356356], [-78.117358, 0.356367], [-78.117358, 0.356415], [-78.117369, 0.356447], [-78.117379, 0.356462], [-78.117418, 0.35648], [-78.117451, 0.356479], [-78.117471, 0.356465], [-78.11749, 0.356442], [-78.117505, 0.356378], [-78.117671, 0.356409]]]}, "properties": {"title": "Iglesia Católica Santo Domingo de Guzmán"}}, {"type": "Feature", "id": 3244294755, "geometry": {"type": "Polygon", "coordinates": [[[-78.137466, 0.345621], [-78.137337, 0.345083], [-78.13684, 0.34519], [-78.136996, 0.345732], [-78.137466, 0.345621]]]}, "properties": {"title": "Iglesia Católica Jesús del Gran Poder - El Ejido"}}, {"type": "Feature", "id": 1766856638, "geometry": {"type": "Polygon", "coordinates": [[[-78.127112, 0.357879], [-78.127274, 0.357649], [-78.127158, 0.357568], [-78.126992, 0.357798], [-78.127112, 0.357879]]]}, "properties": {"title": "Iglesia Católica Cristo Resucitado"}}, {"type": "Feature", "id": 2893950381, "geometry": {"type": "Polygon", "coordinates": [[[-78.127251, 0.338222], [-78.127241, 0.338124], [-78.126928, 0.338149], [-78.12694, 0.338253], [-78.127251, 0.338222]]]}, "properties": {"title": "Iglesia Católica San Juan Diego"}}, {"type": "Feature", "id": 794756848, "geometry": {"type": "Polygon", "coordinates": [[[-78.113704, 0.348515], [-78.113757, 0.347901], [-78.113949, 0.347924], [-78.113995, 0.347578], [-78.113489, 0.347531], [-78.113447, 0.348007], [-78.113252, 0.34799], [-78.113212, 0.348475], [-78.113704, 0.348515]]]}, "properties": {"title": "Iglesia San Francisco"}}, {"type": "Feature", "id": 568481971, "geometry": {"type": "Polygon", "coordinates": [[[-78.121165, 0.322103], [-78.121197, 0.321834], [-78.120791, 0.321786], [-78.120765, 0.322055], [-78.121165, 0.322103]]]}, "properties": {"title": "Santuario Católico Nuestra Señora de El Cisne"}}, {"type": "Feature", "id": 1863725255, "geometry": {"type": "Polygon", "coordinates": [[[-78.121082, 0.312361], [-78.12109, 0.312071], [-78.120806, 0.312064], [-78.120809, 0.312099], [-78.120696, 0.312183], [-78.120696, 0.31226], [-78.12073, 0.312296], [-78.120808, 0.312337], [-78.120873, 0.312344], [-78.120948, 0.312278], [-78.120989, 0.312279], [-78.120991, 0.312358], [-78.121082, 0.312361]]]}, "properties": {"title": "Santuario Católico Nuestra Señora de El Cisne"}}, {"type": "Feature", "id": 2853307854, "geometry": {"type": "Polygon", "coordinates": [[[-78.131812, 0.361975], [-78.13169, 0.36213], [-78.132047, 0.362419], [-78.132166, 0.362297], [-78.131812, 0.361975]]]}, "properties": {"title": "Iglesia Católica Santísima Virgen de La Purificación"}}, {"type": "Feature", "id": 3196216800, "geometry": {"type": "Polygon", "coordinates": [[[-78.117414, 0.344826], [-78.117469, 0.344434], [-78.117219, 0.344394], [-78.117171, 0.344749], [-78.117288, 0.344764], [-78.117279, 0.344811], [-78.117414, 0.344826]]]}, "properties": {"title": "La Iglesia de Jesucristo de los Santos de los Últimos Días"}}], "groups": [], "markers": [], "properties": {}}