{"type": "FeatureCollection", "features": [{"type": "Feature", "id": 2849205304, "geometry": {"type": "Polygon", "coordinates": [[[-78.11036, 0.381725], [-78.108791, 0.381102], [-78.109219, 0.380779], [-78.108531, 0.379407], [-78.1092, 0.379211], [-78.109562, 0.379014], [-78.109921, 0.378734], [-78.110008, 0.378634], [-78.111316, 0.379266], [-78.11036, 0.381725]]]}, "properties": {"fill": "#cc1b15", "title": "Instituto Tecnologico Superior liceo Aduanero"}}, {"type": "Feature", "id": 3738694206, "geometry": {"type": "Polygon", "coordinates": [[[-78.10568, 0.346559], [-78.105724, 0.347881], [-78.105239, 0.348026], [-78.105022, 0.347076], [-78.10458, 0.346417], [-78.105067, 0.346308], [-78.105083, 0.346465], [-78.105166, 0.346526], [-78.10568, 0.346559]]]}, "properties": {"fill": "#cc1b15", "title": "Unidad Educativa La Victoria"}}, {"type": "Feature", "id": 1221169102, "geometry": {"type": "Polygon", "coordinates": [[[-78.110158, 0.348509], [-78.108102, 0.348198], [-78.1083, 0.347574], [-78.108532, 0.347193], [-78.110054, 0.347507], [-78.110116, 0.347454], [-78.110278, 0.346961], [-78.110952, 0.347065], [-78.110257, 0.348128], [-78.110158, 0.348509]]]}, "properties": {"title": "Unidad Eucativa los Arrayanes"}}, {"type": "Feature", "id": 4023867489, "geometry": {"type": "Polygon", "coordinates": [[[-78.109772, 0.344058], [-78.108042, 0.343812], [-78.108181, 0.343171], [-78.108459, 0.342698], [-78.109931, 0.342905], [-78.109772, 0.344058]]]}, "properties": {"title": "Colegio Victor Manuel Peñaherrera"}}, {"type": "Feature", "id": 1395090603, "geometry": {"type": "Polygon", "coordinates": [[[-78.109569, 0.342789], [-78.109588, 0.342493], [-78.109195, 0.342457], [-78.109143, 0.34272], [-78.109569, 0.342789]]]}, "properties": {"title": "Unidad Educativa Particular Aduana"}}, {"type": "Feature", "id": 3917969252, "geometry": {"type": "Polygon", "coordinates": [[[-78.112002, 0.338471], [-78.110058, 0.338159], [-78.110137, 0.337831], [-78.110222, 0.337499], [-78.1102, 0.337386], [-78.110398, 0.337616], [-78.110783, 0.337859], [-78.111163, 0.338018], [-78.111622, 0.337916], [-78.11186, 0.338126], [-78.111857, 0.338236], [-78.112013, 0.338423], [-78.112002, 0.338471]]]}, "properties": {"fill": "#cc1b15", "title": "Unidad Educativa Victor manuel Peñaherrera"}}, {"type": "Feature", "id": 33897223, "geometry": {"type": "Polygon", "coordinates": [[[-78.11426, 0.350049], [-78.114367, 0.349463], [-78.114385, 0.349219], [-78.113945, 0.349142], [-78.113829, 0.349984], [-78.11426, 0.350049]]]}, "properties": {"title": "Unidad Educativa Particular Oviedo"}}, {"type": "Feature", "id": 989625643, "geometry": {"type": "Polygon", "coordinates": [[[-78.113456, 0.348997], [-78.113462, 0.348899], [-78.113581, 0.348914], [-78.113566, 0.348503], [-78.113215, 0.348467], [-78.113251, 0.347982], [-78.112729, 0.347949], [-78.112652, 0.348867], [-78.113456, 0.348997]]]}, "properties": {"title": "Unidad Educativa fiscomicional San Francisco de Asis"}}, {"type": "Feature", "id": 1004118402, "geometry": {"type": "Polygon", "coordinates": [[[-78.118614, 0.34892], [-78.117802, 0.34876], [-78.117949, 0.34792], [-78.118769, 0.348046], [-78.118614, 0.34892]]]}, "properties": {"title": "Colegio La inmaculada concepción"}}, {"type": "Feature", "id": 1737430749, "geometry": {"type": "Polygon", "coordinates": [[[-78.118785, 0.347979], [-78.117969, 0.347849], [-78.118108, 0.346975], [-78.118932, 0.347122], [-78.118785, 0.347979]]]}, "properties": {"title": "Unidad Educativa la Salle"}}, {"type": "Feature", "id": 4079629856, "geometry": {"type": "Polygon", "coordinates": [[[-78.118347, 0.345042], [-78.117506, 0.344907], [-78.117823, 0.343098], [-78.11867, 0.343212], [-78.118347, 0.345042]]]}, "properties": {"title": "Unidad Educativa Sanchez y Cifuentes"}}, {"type": "Feature", "id": 2802634765, "geometry": {"type": "Polygon", "coordinates": [[[-78.117936, 0.342064], [-78.116058, 0.341977], [-78.116571, 0.339114], [-78.118356, 0.339373], [-78.117936, 0.342064]]]}, "properties": {"image": {"id": "sjxbw3pgbfysyjwt", "w": 225, "h": 225, "tip_color": "#bebf95", "avg_color": "#c2b580"}, "title": "Unidad Educativa Teodoro Gomez de la Torre"}}, {"type": "Feature", "id": 1109813478, "geometry": {"type": "Polygon", "coordinates": [[[-78.11555, 0.337889], [-78.115053, 0.337884], [-78.115297, 0.336924], [-78.114481, 0.33661], [-78.114605, 0.33576], [-78.115844, 0.336182], [-78.11555, 0.337889]]]}, "properties": {"image": {"id": "su0swotaxlvrpg8w", "w": 225, "h": 225, "tip_color": "#f0f4f9", "avg_color": "#bab8b2"}, "title": "Unidad Educativa Victor Manuel Guzman"}}, {"type": "Feature", "id": 3015700470, "geometry": {"type": "Polygon", "coordinates": [[[-78.120273, 0.350251], [-78.119811, 0.35016], [-78.119914, 0.349668], [-78.120355, 0.349747], [-78.120273, 0.350251]]]}, "properties": {"image": {"id": "pzwefns3ftb9roz5", "w": 167, "h": 207, "tip_color": "#362a15", "avg_color": "#9ea384"}, "title": "Unidad Educativa Sagrado Corazon de Jesus"}}, {"type": "Feature", "id": 2611574723, "geometry": {"type": "Polygon", "coordinates": [[[-78.12566, 0.360651], [-78.124183, 0.359722], [-78.124978, 0.358585], [-78.12661, 0.359753], [-78.125903, 0.360548], [-78.12566, 0.360651]]]}, "properties": {"image": {"id": "sbilsgr5nmedhw3g", "w": 225, "h": 225, "tip_color": "#1c1c1c", "avg_color": "#b39d96"}, "title": "Instituto tecnológico Superior 17 de Julio"}}, {"type": "Feature", "id": 2608566949, "geometry": {"type": "Polygon", "coordinates": [[[-78.12512, 0.354573], [-78.124468, 0.353358], [-78.124864, 0.353112], [-78.125522, 0.354408], [-78.12512, 0.354573]]]}, "properties": {"image": {"id": "unpsc0simtdkji9y", "w": 225, "h": 224, "tip_color": "#d5e9fa", "avg_color": "#dedcd9"}, "title": "Unidad Educativa Ana Luisa Leoro"}}, {"type": "Feature", "id": 2418288382, "geometry": {"type": "Polygon", "coordinates": [[[-78.122135, 0.3135], [-78.120003, 0.313285], [-78.120056, 0.312282], [-78.122296, 0.312443], [-78.122135, 0.3135]]]}, "properties": {"title": "Unidad Educativa Academia Militar San Diego"}}, {"type": "Feature", "id": 521875224, "geometry": {"type": "Polygon", "coordinates": [[[-78.122127, 0.325775], [-78.121263, 0.325744], [-78.121273, 0.324581], [-78.1222, 0.324597], [-78.12222, 0.325147], [-78.122117, 0.325147], [-78.122127, 0.325775]]]}, "properties": {"title": "Unidad Educativa Atahualpa"}}, {"type": "Feature", "id": 1734533034, "geometry": {"type": "Polygon", "coordinates": [[[-78.13862, 0.344651], [-78.13833, 0.343223], [-78.137122, 0.343452], [-78.137381, 0.34491], [-78.13862, 0.344651]]]}, "properties": {"title": "Colegio Técnico Mariano Suarez"}}], "groups": [], "markers": [], "properties": {}}